#aV2015 11 13  0  0  0.00000000     288 DD+AD WGS84 FIT  NGA
## 1870 432000.00000000   300.00000000 57339 0.0000000000000
+   30     1  2  3  5  6  7  8  9 11 12 13 14 15 16 17 18 19
+         20 21 22 23 24 25 26 27 28 29 30 31 32  0  0  0  0
+          0  0  0  0  0  0  0  0  0  0  0  0  0  0  0  0  0
+          0  0  0  0  0  0  0  0  0  0  0  0  0  0  0  0  0
+          0  0  0  0  0  0  0  0  0  0  0  0  0  0  0  0  0
++         2  2  2  2  2  2  2  2  2  2  2  2  2  2  2  2  2
++         2  2  2  2  2  2  2  2  2  2  2  2  2  0  0  0  0
++         0  0  0  0  0  0  0  0  0  0  0  0  0  0  0  0  0
++         0  0  0  0  0  0  0  0  0  0  0  0  0  0  0  0  0
++         0  0  0  0  0  0  0  0  0  0  0  0  0  0  0  0  0
%c cc cc ccc ccc cccc cccc cccc cccc ccccc ccccc ccccc ccccc
%c cc cc ccc ccc cccc cccc cccc cccc ccccc ccccc ccccc ccccc
%f  0.0000000  0.000000000  0.00000000000  0.000000000000000
%f  0.0000000  0.000000000  0.00000000000  0.000000000000000
%i    0    0    0    0      0      0      0      0         0
%i    0    0    0    0      0      0      0      0         0
/*      NGA, ST. LOUIS,MO.                                  
/*   EPHEMERIS COMPUTED FROM 2 DAYS OF DATA                 
/*   EPOCHA v2.4 SMOOTHER                                   
/*   G1762 IERS2010 SATAF SATAPC                            
*  2015 11 13 13  0  0.00000000
P  1  19081.560034   7742.377822  16812.575210      4.374843                    
V  1  10363.762912  18804.052219 -20131.335582      0.008077                    
P  2 -13683.053116 -22886.079062   3048.564790    595.662904                    
V  2   4395.184782    985.591116  30730.218011      0.009883                    
P  3  16953.598438  -2063.094308  20347.103626     13.956706                    
V  3 -10578.044842  23590.329054  11187.044227     -0.033669                    
P  5  -6611.296495 -17503.907736 -18843.189389   -175.163558                    
V  5  11936.929124 -20777.312469  15358.750346      0.038100                    
P  6  -3732.269419 -22545.059414  13542.091013     94.351979                    
V  6  11353.211314  13090.875062  24907.810870      0.067243                    
P  7  12758.398091  -7871.512709 -21795.901882    480.466598                    
V  7  15057.181852  23563.111750    -75.730387     -0.010399                    
P  8  23290.438520   6176.102329 -11114.460796    -12.336164                    
V  8 -13990.551243   3395.231201 -27317.612264     -0.014246                    
P  9  23057.487957  -8650.514543  -9973.662540      9.803753                    
V  9  12803.623914   1727.639885  28119.513717      0.058057                    
P 11  23484.235899   8488.814132   8596.469144   -615.903231                    
V 11   6892.698523  10547.659630 -27416.277357     -0.021662                    
P 12 -15451.953030  -1166.742106  21428.291820    345.047476                    
V 12  12874.976778 -24218.236983   8131.542377      0.031263                    
P 13 -15819.978624 -12566.113311 -17322.475852   -163.959433                    
V 13  21791.576922   -465.147847 -19812.592805     -0.027846                    
P 14  -9628.630867  14098.254443  20560.156526     21.965777                    
V 14 -25552.199833  -1288.573563 -11366.628267     -0.024230                    
P 15 -24663.250977  -4204.721482  -9513.817919   -281.923271                    
V 15  11437.979929  -4397.594117 -27682.820664     -0.019578                    
P 16   4401.263163  17596.835030 -19341.615297    -66.969832                    
V 16 -13267.080378  20559.149543  16110.141243      0.036343                    
P 17   9305.274064 -14206.272812  20675.843788   -193.872927                    
V 17  25585.276251    419.290748 -11606.088331     -0.010550                    
P 18 -15692.206795  19469.808520  -8015.805718    452.522370                    
V 18   1009.383247 -11656.747461 -28768.630291      0.037573                    
P 19  24083.961530  -5997.777982   9852.555290   -522.709156                    
V 19  12602.453594   2308.000784 -28329.158484     -0.004141                    
P 20 -16578.872889   -895.614265 -20900.642967    370.655814                    
V 20   9133.953885 -24680.253385  -6162.477940      0.028972                    
P 21 -10184.318724  12037.027103 -20628.009705   -493.172478                    
V 21 -16660.781160 -22521.146812  -5064.951294     -0.024291                    
P 22  -8025.774186  24897.012502   4250.164181    410.152303                    
V 22  -5864.560092   2976.823964 -30368.639244      0.036890                    
P 23  26710.298590     27.368395   2353.879598   -144.207306                    
V 23  -2572.661580   2997.587160  30994.665830     -0.020563                    
P 24 -19753.052007 -10056.576853  14722.359722     -7.896397                    
V 24  -8876.241943 -16616.332647 -23033.455767     -0.005459                    
P 25 -17625.099325  12700.797657  15060.947950    -66.858879                    
V 25   7006.037533 -18108.495389  23480.163827     -0.057597                    
P 26  -2648.174538  23760.612530 -11550.347692   -120.983922                    
V 26  -8622.172072  12121.022776  26917.885443     -0.153547                    
P 27  14258.407510  12069.495827 -18955.005726     35.557978                    
V 27 -23812.263337   2815.426282 -16016.152957      0.031896                    
P 28  12060.640030 -23546.197060   2424.456704    481.145998                    
V 28   2829.432036   -999.310063 -32240.124621      0.026423                    
P 29 -24785.942449   5472.427472  -7744.710516    644.226607                    
V 29  -9867.371105  -2143.953269  30041.733712      0.016657                    
P 30   5033.335241 -18083.705165 -18758.664178     56.247509                    
V 30  13132.502843  19994.217482 -15828.398723      0.056651                    
P 31   3865.995124  22825.476886  12822.964884    295.441339                    
V 31 -10376.874134 -12615.971049  26180.995111     -0.014822                    
P 32  11197.635229  11173.635039  21320.244214     15.653537                    
V 32 -14184.366479  23233.017796  -4177.282989      0.118234                    
EOF
